IRIDIUM 144             
1 43249U 18030A   25088.80513339  .00000243  00000+0  79647-4 0  9994
2 43249  86.3926 116.2093 0002107  91.6510 268.4927 14.34216162366443
IRIDIUM 149             
1 43250U 18030B   25088.81147724  .00000242  00000+0  79409-4 0  9993
2 43250  86.3926 116.1788 0002124  94.3441 265.7997 14.34216200366469
IRIDIUM 157             
1 43251U 18030C   25088.83050617  .00000253  00000+0  83444-4 0  9996
2 43251  86.3928 116.2141 0002546  93.9505 266.1982 14.34216963366443
IRIDIUM 140             
1 43252U 18030D   25088.77976378  .00000257  00000+0  84704-4 0  9995
2 43252  86.3929 116.2492 0002110  90.7612 269.3826 14.34216836366491
IRIDIUM 145             
1 43253U 18030E   25088.83684507  .00000256  00000+0  84408-4 0  9993
2 43253  86.3927 116.1982 0001898  96.2210 263.9202 14.34217576366434
IRIDIUM 146             
1 43254U 18030F   25088.81781581  .00000160  00000+0  50222-4 0  9993
2 43254  86.3928 116.2201 0001871  95.8598 264.2811 14.34216979366443
IRIDIUM 148             
1 43255U 18030G   25088.78610380  .00000221  00000+0  71898-4 0  9998
2 43255  86.3928 116.2695 0002221  97.5423 262.6026 14.34217151366473
IRIDIUM 142             
1 43256U 18030H   25088.82415668  .00000144  00000+0  44180-4 0  9994
2 43256  86.3925 116.1586 0001873 100.0450 260.0957 14.34216689366448
